CCSDS_OMM_VERS = 2.0
CREATION_DATE  = 
ORIGINATOR     = 

OBJECT_NAME    = STARLINK-36890
OBJECT_ID      = 2026-054AC
CENTER_NAME    = EARTH
REF_FRAME      = TEME
TIME_SYSTEM    = UTC
MEAN_ELEMENT_THEORY = SGP/SGP4

EPOCH          = 2026-03-26T06:00:02.000160
MEAN_MOTION    = 15.85912761
ECCENTRICITY   = .00009391
INCLINATION    = 53.1586
RA_OF_ASC_NODE = 229.4632
ARG_OF_PERICENTER = 68.8782
MEAN_ANOMALY   = 4.0727

EPHEMERIS_TYPE = 0
CLASSIFICATION_TYPE = U
NORAD_CAT_ID   = 68258
ELEMENT_SET_NO = 999
REV_AT_EPOCH   = 257
BSTAR          = -.90114039E-2
MEAN_MOTION_DOT = -.1966845E-1
MEAN_MOTION_DDOT = 0

CCSDS_OMM_VERS = 2.0
CREATION_DATE  = 
ORIGINATOR     = 

OBJECT_NAME    = STARLINK-36323
OBJECT_ID      = 2026-054AD
CENTER_NAME    = EARTH
REF_FRAME      = TEME
TIME_SYSTEM    = UTC
MEAN_ELEMENT_THEORY = SGP/SGP4

EPOCH          = 2026-03-26T06:00:02.000160
MEAN_MOTION    = 15.85490439
ECCENTRICITY   = .00008697
INCLINATION    = 53.1587
RA_OF_ASC_NODE = 229.4773
ARG_OF_PERICENTER = 83.6367
MEAN_ANOMALY   = 342.5384

EPHEMERIS_TYPE = 0
CLASSIFICATION_TYPE = U
NORAD_CAT_ID   = 68259
ELEMENT_SET_NO = 999
REV_AT_EPOCH   = 261
BSTAR          = -.92843237E-2
MEAN_MOTION_DOT = -.1982294E-1
MEAN_MOTION_DDOT = 0

CCSDS_OMM_VERS = 2.0
CREATION_DATE  = 
ORIGINATOR     = 

OBJECT_NAME    = STARLINK-37056
OBJECT_ID      = 2026-054AE
CENTER_NAME    = EARTH
REF_FRAME      = TEME
TIME_SYSTEM    = UTC
MEAN_ELEMENT_THEORY = SGP/SGP4

EPOCH          = 2026-03-26T06:00:02.000160
MEAN_MOTION    = 15.86094664
ECCENTRICITY   = .0000816
INCLINATION    = 53.1585
RA_OF_ASC_NODE = 229.4561
ARG_OF_PERICENTER = 82.5128
MEAN_ANOMALY   = 353.8640

EPHEMERIS_TYPE = 0
CLASSIFICATION_TYPE = U
NORAD_CAT_ID   = 68260
ELEMENT_SET_NO = 999
REV_AT_EPOCH   = 257
BSTAR          = -.88186913E-2
MEAN_MOTION_DOT = -.1945252E-1
MEAN_MOTION_DDOT = 0

CCSDS_OMM_VERS = 2.0
CREATION_DATE  = 
ORIGINATOR     = 

OBJECT_NAME    = TEN-KOH 2
OBJECT_ID      = 2025-241B
CENTER_NAME    = EARTH
REF_FRAME      = TEME
TIME_SYSTEM    = UTC
MEAN_ELEMENT_THEORY = SGP/SGP4

EPOCH          = 2026-03-26T03:49:41.995776
MEAN_MOTION    = 15.22690949
ECCENTRICITY   = .00044287
INCLINATION    = 51.6374
RA_OF_ASC_NODE = 354.5563
ARG_OF_PERICENTER = 214.5406
MEAN_ANOMALY   = 145.5284

EPHEMERIS_TYPE = 0
CLASSIFICATION_TYPE = U
NORAD_CAT_ID   = 68261
ELEMENT_SET_NO = 999
REV_AT_EPOCH   = 225
BSTAR          = .37373938E-3
MEAN_MOTION_DOT = .8507E-4
MEAN_MOTION_DDOT = 0

CCSDS_OMM_VERS = 2.0
CREATION_DATE  = 
ORIGINATOR     = 

OBJECT_NAME    = STARLINK-37162
OBJECT_ID      = 2026-055A
CENTER_NAME    = EARTH
REF_FRAME      = TEME
TIME_SYSTEM    = UTC
MEAN_ELEMENT_THEORY = SGP/SGP4

EPOCH          = 2026-03-26T06:00:02.000160
MEAN_MOTION    = 16.00119220
ECCENTRICITY   = .00005182
INCLINATION    = 53.1597
RA_OF_ASC_NODE = 254.9561
ARG_OF_PERICENTER = 84.5155
MEAN_ANOMALY   = 209.9717

EPHEMERIS_TYPE = 0
CLASSIFICATION_TYPE = U
NORAD_CAT_ID   = 68262
ELEMENT_SET_NO = 999
REV_AT_EPOCH   = 229
BSTAR          = -.17980139E-2
MEAN_MOTION_DOT = -.952548E-2
MEAN_MOTION_DDOT = .30461249E-3

CCSDS_OMM_VERS = 2.0
CREATION_DATE  = 
ORIGINATOR     = 

OBJECT_NAME    = STARLINK-37156
OBJECT_ID      = 2026-055B
CENTER_NAME    = EARTH
REF_FRAME      = TEME
TIME_SYSTEM    = UTC
MEAN_ELEMENT_THEORY = SGP/SGP4

EPOCH          = 2026-03-26T06:00:02.000160
MEAN_MOTION    = 16.00209917
ECCENTRICITY   = .00005291
INCLINATION    = 53.1596
RA_OF_ASC_NODE = 254.9530
ARG_OF_PERICENTER = 86.1580
MEAN_ANOMALY   = 209.9690

EPHEMERIS_TYPE = 0
CLASSIFICATION_TYPE = U
NORAD_CAT_ID   = 68263
ELEMENT_SET_NO = 999
REV_AT_EPOCH   = 229
BSTAR          = -.17966846E-2
MEAN_MOTION_DOT = -.956765E-2
MEAN_MOTION_DDOT = .30735388E-3

CCSDS_OMM_VERS = 2.0
CREATION_DATE  = 
ORIGINATOR     = 

OBJECT_NAME    = STARLINK-37163
OBJECT_ID      = 2026-055C
CENTER_NAME    = EARTH
REF_FRAME      = TEME
TIME_SYSTEM    = UTC
MEAN_ELEMENT_THEORY = SGP/SGP4

EPOCH          = 2026-03-26T06:00:02.000160
MEAN_MOTION    = 16.00462598
ECCENTRICITY   = .0000546
INCLINATION    = 53.1595
RA_OF_ASC_NODE = 254.9441
ARG_OF_PERICENTER = 82.0279
MEAN_ANOMALY   = 218.1234

EPHEMERIS_TYPE = 0
CLASSIFICATION_TYPE = U
NORAD_CAT_ID   = 68264
ELEMENT_SET_NO = 999
REV_AT_EPOCH   = 229
BSTAR          = -.177437E-2
MEAN_MOTION_DOT = -.958688E-2
MEAN_MOTION_DDOT = .30931745E-3

CCSDS_OMM_VERS = 2.0
CREATION_DATE  = 
ORIGINATOR     = 

OBJECT_NAME    = STARLINK-37133
OBJECT_ID      = 2026-055D
CENTER_NAME    = EARTH
REF_FRAME      = TEME
TIME_SYSTEM    = UTC
MEAN_ELEMENT_THEORY = SGP/SGP4

EPOCH          = 2026-03-26T06:00:02.000160
MEAN_MOTION    = 16.00338071
ECCENTRICITY   = .00004984
INCLINATION    = 53.1596
RA_OF_ASC_NODE = 254.9485
ARG_OF_PERICENTER = 82.9664
MEAN_ANOMALY   = 215.2265

EPHEMERIS_TYPE = 0
CLASSIFICATION_TYPE = U
NORAD_CAT_ID   = 68265
ELEMENT_SET_NO = 999
REV_AT_EPOCH   = 229
BSTAR          = -.17813723E-2
MEAN_MOTION_DOT = -.95563E-2
MEAN_MOTION_DDOT = .30712188E-3

CCSDS_OMM_VERS = 2.0
CREATION_DATE  = 
ORIGINATOR     = 

OBJECT_NAME    = STARLINK-37042
OBJECT_ID      = 2026-055E
CENTER_NAME    = EARTH
REF_FRAME      = TEME
TIME_SYSTEM    = UTC
MEAN_ELEMENT_THEORY = SGP/SGP4

EPOCH          = 2026-03-26T06:00:02.000160
MEAN_MOTION    = 16.00628298
ECCENTRICITY   = .00005227
INCLINATION    = 53.1594
RA_OF_ASC_NODE = 254.9391
ARG_OF_PERICENTER = 82.1986
MEAN_ANOMALY   = 220.5264

EPHEMERIS_TYPE = 0
CLASSIFICATION_TYPE = U
NORAD_CAT_ID   = 68266
ELEMENT_SET_NO = 999
REV_AT_EPOCH   = 229
BSTAR          = -.17677803E-2
MEAN_MOTION_DOT = -.964233E-2
MEAN_MOTION_DDOT = .31312109E-3

CCSDS_OMM_VERS = 2.0
CREATION_DATE  = 
ORIGINATOR     = 

OBJECT_NAME    = STARLINK-37103
OBJECT_ID      = 2026-055F
CENTER_NAME    = EARTH
REF_FRAME      = TEME
TIME_SYSTEM    = UTC
MEAN_ELEMENT_THEORY = SGP/SGP4

EPOCH          = 2026-03-26T06:00:02.000160
MEAN_MOTION    = 16.00768249
ECCENTRICITY   = .00006071
INCLINATION    = 53.1596
RA_OF_ASC_NODE = 254.9343
ARG_OF_PERICENTER = 84.8692
MEAN_ANOMALY   = 220.0539

EPHEMERIS_TYPE = 0
CLASSIFICATION_TYPE = U
NORAD_CAT_ID   = 68267
ELEMENT_SET_NO = 999
REV_AT_EPOCH   = 229
BSTAR          = -.17561861E-2
MEAN_MOTION_DOT = -.965673E-2
MEAN_MOTION_DDOT = .31444591E-3

CCSDS_OMM_VERS = 2.0
CREATION_DATE  = 
ORIGINATOR     = 

OBJECT_NAME    = STARLINK-36999
OBJECT_ID      = 2026-055G
CENTER_NAME    = EARTH
REF_FRAME      = TEME
TIME_SYSTEM    = UTC
MEAN_ELEMENT_THEORY = SGP/SGP4

EPOCH          = 2026-03-26T06:00:02.000160
MEAN_MOTION    = 16.00893437
ECCENTRICITY   = .00005025
INCLINATION    = 53.1595
RA_OF_ASC_NODE = 254.9304
ARG_OF_PERICENTER = 87.3484
MEAN_ANOMALY   = 219.5472

EPHEMERIS_TYPE = 0
CLASSIFICATION_TYPE = U
NORAD_CAT_ID   = 68268
ELEMENT_SET_NO = 999
REV_AT_EPOCH   = 229
BSTAR          = -.17453426E-2
MEAN_MOTION_DOT = -.966669E-2
MEAN_MOTION_DDOT = .3154633E-3

CCSDS_OMM_VERS = 2.0
CREATION_DATE  = 
ORIGINATOR     = 

OBJECT_NAME    = STARLINK-36962
OBJECT_ID      = 2026-055H
CENTER_NAME    = EARTH
REF_FRAME      = TEME
TIME_SYSTEM    = UTC
MEAN_ELEMENT_THEORY = SGP/SGP4

EPOCH          = 2026-03-26T06:00:02.000160
MEAN_MOTION    = 16.01028055
ECCENTRICITY   = .00005624
INCLINATION    = 53.1595
RA_OF_ASC_NODE = 254.9258
ARG_OF_PERICENTER = 90.1144
MEAN_ANOMALY   = 218.8744

EPHEMERIS_TYPE = 0
CLASSIFICATION_TYPE = U
NORAD_CAT_ID   = 68269
ELEMENT_SET_NO = 999
REV_AT_EPOCH   = 229
BSTAR          = -.173408E-2
MEAN_MOTION_DOT = -.967944E-2
MEAN_MOTION_DDOT = .31668127E-3

