STARLINK-36890          
1 68258U 26054AC  26085.25002315 -.01966845  00000+0 -90114-2 0  9992
2 68258  53.1586 229.4632 0000939  68.8782   4.0727 15.85912761  2576
STARLINK-36323          
1 68259U 26054AD  26085.25002315 -.01982294  00000+0 -92843-2 0  9990
2 68259  53.1587 229.4773 0000869  83.6367 342.5384 15.85490439  2617
STARLINK-37056          
1 68260U 26054AE  26085.25002315 -.01945252  00000+0 -88187-2 0  9991
2 68260  53.1585 229.4561 0000816  82.5128 353.8640 15.86094664  2573
TEN-KOH 2               
1 68261U 25241B   26085.15951384  .00008507  00000+0  37374-3 0  9990
2 68261  51.6374 354.5563 0004428 214.5406 145.5284 15.22690949  2257
STARLINK-37162          
1 68262U 26055A   26085.25002315 -.00952548  30461-3 -17980-2 0  9990
2 68262  53.1597 254.9561 0000518  84.5155 209.9717 16.00119220  2290
STARLINK-37156          
1 68263U 26055B   26085.25002315 -.00956765  30735-3 -17967-2 0  9995
2 68263  53.1596 254.9530 0000529  86.1580 209.9690 16.00209917  2291
STARLINK-37163          
1 68264U 26055C   26085.25002315 -.00958688  30932-3 -17744-2 0  9994
2 68264  53.1595 254.9441 0000546  82.0279 218.1234 16.00462598  2293
STARLINK-37133          
1 68265U 26055D   26085.25002315 -.00955630  30712-3 -17814-2 0  9993
2 68265  53.1596 254.9485 0000498  82.9664 215.2265 16.00338071  2296
STARLINK-37042          
1 68266U 26055E   26085.25002315 -.00964233  31312-3 -17678-2 0  9998
2 68266  53.1594 254.9391 0000522  82.1986 220.5264 16.00628298  2299
STARLINK-37103          
1 68267U 26055F   26085.25002315 -.00965673  31445-3 -17562-2 0  9997
2 68267  53.1596 254.9343 0000607  84.8692 220.0539 16.00768249  2297
STARLINK-36999          
1 68268U 26055G   26085.25002315 -.00966669  31546-3 -17453-2 0  9995
2 68268  53.1595 254.9304 0000502  87.3484 219.5472 16.00893437  2292
STARLINK-36962          
1 68269U 26055H   26085.25002315 -.00967944  31668-3 -17341-2 0  9994
2 68269  53.1595 254.9258 0000562  90.1144 218.8744 16.01028055  2293
